[
    {
        "Altitude(m)": 617710.6847134146,
        "Argument of Periapsis(deg)": 0.0,
        "Eccentricity": 0.0,
        "Inclination(deg)": 60.0,
        "Latitude(deg)": -41.102782108003595,
        "Longitude(deg)": -145.03342018481226,
        "Mean Anomaly(deg)": -49.09089999999994,
        "RAAN(deg)": 345.0,
        "Satellite Name": "Test1 1537",
        "Satellite Number": 1537,
        "Semi-Major Axis(m)": 6980739.136638005,
        "Time(s)": 0
    },
    {
        "Altitude(m)": 617517.9832825573,
        "Argument of Periapsis(deg)": 0.00010418945913296404,
        "Eccentricity": 0.0,
        "Inclination(deg)": 60.0,
        "Latitude(deg)": -40.63698957237588,
        "Longitude(deg)": -144.53662485652254,
        "Mean Anomaly(deg)": -48.470793854538094,
        "RAAN(deg)": 344.99957995086027,
        "Satellite Name": "Test1 1537",
        "Satellite Number": 1537,
        "Semi-Major Axis(m)": 6980739.136638005,
        "Time(s)": 10
    },
    {
        "Altitude(m)": 617324.3047298844,
        "Argument of Periapsis(deg)": 0.0002083789182659281,
        "Eccentricity": 0.0,
        "Inclination(deg)": 60.0,
        "Latitude(deg)": -40.16867169905992,
        "Longitude(deg)": -144.04725742461358,
        "Mean Anomaly(deg)": -47.85068770907624,
        "RAAN(deg)": 344.99915990172053,
        "Satellite Name": "Test1 1537",
        "Satellite Number": 1537,
        "Semi-Major Axis(m)": 6980739.136638005,
        "Time(s)": 20
    },
    {
        "Altitude(m)": 617129.7230361457,
        "Argument of Periapsis(deg)": 0.00031256837739889213,
        "Eccentricity": 0.0,
        "Inclination(deg)": 60.0,
        "Latitude(deg)": -39.69790162039985,
        "Longitude(deg)": -143.56513343468976,
        "Mean Anomaly(deg)": -47.230581563614436,
        "RAAN(deg)": 344.9987398525808,
        "Satellite Name": "Test1 1537",
        "Satellite Number": 1537,
        "Semi-Major Axis(m)": 6980739.136638005,
        "Time(s)": 30
    },
    {
        "Altitude(m)": 616934.312430825,
        "Argument of Periapsis(deg)": 0.0004167578365318562,
        "Eccentricity": 0.0,
        "Inclination(deg)": 60.0,
        "Latitude(deg)": -39.22475024605844,
        "Longitude(deg)": -143.09007141053974,
        "Mean Anomaly(deg)": -46.61047541815258,
        "RAAN(deg)": 344.99831980344106,
        "Satellite Name": "Test1 1537",
        "Satellite Number": 1537,
        "Semi-Major Axis(m)": 6980739.136638005,
        "Time(s)": 40
    },
    {
        "Altitude(m)": 616738.1473596728,
        "Argument of Periapsis(deg)": 0.0005209472956648203,
        "Eccentricity": 0.0,
        "Inclination(deg)": 60.0,
        "Latitude(deg)": -38.74928633541194,
        "Longitude(deg)": -142.62189387733576,
        "Mean Anomaly(deg)": -45.99036927269073,
        "RAAN(deg)": 344.9978997543013,
        "Satellite Name": "Test1 1537",
        "Satellite Number": 1537,
        "Semi-Major Axis(m)": 6980739.136638005,
        "Time(s)": 50
    },
    {
        "Altitude(m)": 616541.3024521202,
        "Argument of Periapsis(deg)": 0.0006251367547977843,
        "Eccentricity": 0.0,
        "Inclination(deg)": 60.0,
        "Latitude(deg)": -38.271576568462145,
        "Longitude(deg)": -142.16042686107602,
        "Mean Anomaly(deg)": -45.37026312722898,
        "RAAN(deg)": 344.99747970516154,
        "Satellite Name": "Test1 1537",
        "Satellite Number": 1537,
        "Semi-Major Axis(m)": 6980739.136638005,
        "Time(s)": 60
    },
    {
        "Altitude(m)": 616343.852488591,
        "Argument of Periapsis(deg)": 0.0007293262139307483,
        "Eccentricity": 0.0,
        "Inclination(deg)": 60.0,
        "Latitude(deg)": -37.79168561519417,
        "Longitude(deg)": -141.70549937827118,
        "Mean Anomaly(deg)": -44.75015698176708,
        "RAAN(deg)": 344.99705965602186,
        "Satellite Name": "Test1 1537",
        "Satellite Number": 1537,
        "Semi-Major Axis(m)": 6980739.136638005,
        "Time(s)": 70
    },
    {
        "Altitude(m)": 616145.8723677276,
        "Argument of Periapsis(deg)": 0.0008335156730637124,
        "Eccentricity": 0.0,
        "Inclination(deg)": 60.0,
        "Latitude(deg)": -37.30967620332298,
        "Longitude(deg)": -141.2569444297917,
        "Mean Anomaly(deg)": -44.13005083630533,
        "RAAN(deg)": 344.99663960688207,
        "Satellite Name": "Test1 1537",
        "Satellite Number": 1537,
        "Semi-Major Axis(m)": 6980739.136638005,
        "Time(s)": 80
    },
    {
        "Altitude(m)": 615947.4370735277,
        "Argument of Periapsis(deg)": 0.0009377051321966765,
        "Eccentricity": 0.0,
        "Inclination(deg)": 60.0,
        "Latitude(deg)": -36.82560918438948,
        "Longitude(deg)": -140.8145984740824,
        "Mean Anomaly(deg)": -43.50994469084347,
        "RAAN(deg)": 344.99621955774234,
        "Satellite Name": "Test1 1537",
        "Satellite Number": 1537,
        "Semi-Major Axis(m)": 6980739.136638005,
        "Time(s)": 90
    },
    {
        "Altitude(m)": 615748.6216424446,
        "Argument of Periapsis(deg)": 0.0010418945913296407,
        "Eccentricity": 0.0,
        "Inclination(deg)": 60.0,
        "Latitude(deg)": -36.339543598176185,
        "Longitude(deg)": -140.3783008935009,
        "Mean Anomaly(deg)": -42.88983854538162,
        "RAAN(deg)": 344.9957995086026,
        "Satellite Name": "Test1 1537",
        "Satellite Number": 1537,
        "Semi-Major Axis(m)": 6980739.136638005,
        "Time(s)": 100
    },
    {
        "Altitude(m)": 615549.5011304165,
        "Argument of Periapsis(deg)": 0.0011460840504626045,
        "Eccentricity": 0.0,
        "Inclination(deg)": 60.0,
        "Latitude(deg)": -35.85153673541902,
        "Longitude(deg)": -139.94789496746063,
        "Mean Anomaly(deg)": -42.26973239991982,
        "RAAN(deg)": 344.99537945946287,
        "Satellite Name": "Test1 1537",
        "Satellite Number": 1537,
        "Semi-Major Axis(m)": 6980739.136638005,
        "Time(s)": 110
    },
    {
        "Altitude(m)": 615350.1505798991,
        "Argument of Periapsis(deg)": 0.0012502735095955685,
        "Eccentricity": 0.0,
        "Inclination(deg)": 60.0,
        "Latitude(deg)": -35.36164419880973,
        "Longitude(deg)": -139.52322732736877,
        "Mean Anomaly(deg)": -41.649626254457964,
        "RAAN(deg)": 344.99495941032313,
        "Satellite Name": "Test1 1537",
        "Satellite Number": 1537,
        "Semi-Major Axis(m)": 6980739.136638005,
        "Time(s)": 120
    },
    {
        "Altitude(m)": 615150.6449868396,
        "Argument of Periapsis(deg)": 0.0013544629687285324,
        "Eccentricity": 0.0,
        "Inclination(deg)": 60.0,
        "Latitude(deg)": -34.869919962285366,
        "Longitude(deg)": -139.10414740690962,
        "Mean Anomaly(deg)": -41.02952010899621,
        "RAAN(deg)": 344.99453936118334,
        "Satellite Name": "Test1 1537",
        "Satellite Number": 1537,
        "Semi-Major Axis(m)": 6980739.136638005,
        "Time(s)": 130
    },
    {
        "Altitude(m)": 614951.0592676912,
        "Argument of Periapsis(deg)": 0.0014586524278614966,
        "Eccentricity": 0.0,
        "Inclination(deg)": 60.0,
        "Latitude(deg)": -34.376416428605985,
        "Longitude(deg)": -138.69050840116282,
        "Mean Anomaly(deg)": -40.40941396353436,
        "RAAN(deg)": 344.9941193120436,
        "Satellite Name": "Test1 1537",
        "Satellite Number": 1537,
        "Semi-Major Axis(m)": 6980739.136638005,
        "Time(s)": 140
    },
    {
        "Altitude(m)": 614751.4682264235,
        "Argument of Periapsis(deg)": 0.0015628418869944607,
        "Eccentricity": 0.0,
        "Inclination(deg)": 60.0,
        "Latitude(deg)": -33.88118448523778,
        "Longitude(deg)": -138.28216670937118,
        "Mean Anomaly(deg)": -39.78930781807256,
        "RAAN(deg)": 344.99369926290393,
        "Satellite Name": "Test1 1537",
        "Satellite Number": 1537,
        "Semi-Major Axis(m)": 6980739.136638005,
        "Time(s)": 150
    },
    {
        "Altitude(m)": 614551.9465215683,
        "Argument of Periapsis(deg)": 0.0016670313461274247,
        "Eccentricity": 0.0,
        "Inclination(deg)": 60.0,
        "Latitude(deg)": -33.38427355855433,
        "Longitude(deg)": -137.87898137474002,
        "Mean Anomaly(deg)": -39.169201672610704,
        "RAAN(deg)": 344.99327921376414,
        "Satellite Name": "Test1 1537",
        "Satellite Number": 1537,
        "Semi-Major Axis(m)": 6980739.136638005,
        "Time(s)": 160
    },
    {
        "Altitude(m)": 614352.5686333122,
        "Argument of Periapsis(deg)": 0.0017712208052603888,
        "Eccentricity": 0.0,
        "Inclination(deg)": 60.0,
        "Latitude(deg)": -32.88573166637586,
        "Longitude(deg)": -137.4808150346066,
        "Mean Anomaly(deg)": -38.54909552714885,
        "RAAN(deg)": 344.9928591646244,
        "Satellite Name": "Test1 1537",
        "Satellite Number": 1537,
        "Semi-Major Axis(m)": 6980739.136638005,
        "Time(s)": 170
    },
    {
        "Altitude(m)": 614153.408830655,
        "Argument of Periapsis(deg)": 0.001875410264393353,
        "Eccentricity": 0.0,
        "Inclination(deg)": 60.0,
        "Latitude(deg)": -32.3856054688753,
        "Longitude(deg)": -137.08753335565035,
        "Mean Anomaly(deg)": -37.928989381687,
        "RAAN(deg)": 344.9924391154847,
        "Satellite Name": "Test1 1537",
        "Satellite Number": 1537,
        "Semi-Major Axis(m)": 6980739.136638005,
        "Time(s)": 180
    },
    {
        "Altitude(m)": 613954.5411386413,
        "Argument of Periapsis(deg)": 0.0019795997235263173,
        "Eccentricity": 0.0,
        "Inclination(deg)": 60.0,
        "Latitude(deg)": -31.883940317877386,
        "Longitude(deg)": -136.69900446739538,
        "Mean Anomaly(deg)": -37.30888323622519,
        "RAAN(deg)": 344.99201906634494,
        "Satellite Name": "Test1 1537",
        "Satellite Number": 1537,
        "Semi-Major Axis(m)": 6980739.136638005,
        "Time(s)": 190
    }
]